#aV2013  2 18  0  0  0.00000000     288 DD+AD WGS84 FIT  NGA
## 1728  86400.00000000   300.00000000 56341 0.0000000000000
+   31     1  2  3  4  5  6  7  8  9 10 11 12 13 14 15 16 17
+         18 19 20 21 22 23 24 25 26 28 29 30 31 32  0  0  0
+          0  0  0  0  0  0  0  0  0  0  0  0  0  0  0  0  0
+          0  0  0  0  0  0  0  0  0  0  0  0  0  0  0  0  0
+          0  0  0  0  0  0  0  0  0  0  0  0  0  0  0  0  0
++         2  2  2  2  2  2  2  2  2  2  2  2  2  2  2  2  2
++         2  2  2  2  2  2  2  2  2  2  2  2  2  2  2  0  0
++         0  0  0  0  0  0  0  0  0  0  0  0  0  0  0  0  0
++         0  0  0  0  0  0  0  0  0  0  0  0  0  0  0  0  0
++         0  0  0  0  0  0  0  0  0  0  0  0  0  0  0  0  0
%c cc cc ccc ccc cccc cccc cccc cccc ccccc ccccc ccccc ccccc
%c cc cc ccc ccc cccc cccc cccc cccc ccccc ccccc ccccc ccccc
%f  0.0000000  0.000000000  0.00000000000  0.000000000000000
%f  0.0000000  0.000000000  0.00000000000  0.000000000000000
%i    0    0    0    0      0      0      0      0         0
%i    0    0    0    0      0      0      0      0         0
/*      NGA, ST. LOUIS,MO.                                  
/*   EPHEMERIS COMPUTED FROM  1 DAYS OF DATA
/*   EPOCHA SMOOTHER  
/* CCCCCCCCCCCCCCCCCCCCCCCCCCCCCCCCCCCCCCCCCCCCCCCCCCCCCCCCC
*  2013  2 18  1 30  0.00000000                                                 
P  1  -7638.601583 -14040.352155 -21243.930722      1.276317                    
V  1  26649.456399  -3821.733710  -6993.684014      0.027387                    
P  2 -15845.435936  14005.041170  15929.564308    418.987138                    
V  2 -20339.989984    214.641933 -21170.966681      0.015451                    
P  3   8455.963205 -24888.738634   2292.173633    169.852543                    
V  3   2842.752067   4433.372654  31107.701526      0.049744                    
P  4 -25492.751494   6443.337789   4439.934122    137.764812                    
V  4  -6308.507275  -2494.399504 -30384.409490      0.110910                    
P  5  -3575.495267  18006.681443  19111.331038   -384.237084                    
V  5 -15950.404892 -18559.883528  14616.761548     -0.017721                    
P  6  13660.996658 -21171.390881   7916.953140    346.623245                    
V  6    -81.653638  10640.030526  29283.991702     -0.145647                    
P  7 -21930.299656  -6979.912475  13549.024538    181.885586                    
V  7  16741.583559  -3351.643091  25170.955071      0.043514                    
P  8 -26640.219636  -1759.940348   3249.645825      4.703180                    
V  8   3901.151946  -1145.838826  31832.361694      0.002202                    
P  9 -12821.221497  14279.581125 -18918.224296    221.395889                    
V  9 -22771.899989   1928.256964  17341.473181      0.026192                    
P 10 -16786.059109   1884.370777  20297.887595    -70.287448                    
V 10 -14738.185697 -21909.826875  -9602.019012     -0.013340                    
P 11  -1410.906980 -17424.457454 -20384.030398   -354.554245                    
V 11  23685.456909  -9034.640350   6502.794866     -0.037635                    
P 12  10566.109741  23386.809762  -7269.686949    118.452045                    
V 12  -6762.873438  -6403.558513 -30318.329791      0.020554                    
P 13  -8879.700531 -13133.117895  21146.487089    143.933770                    
V 13  13632.052521 -23481.364204  -8912.116287     -0.029311                    
P 14  17519.836549  -6570.632461 -18600.720863    220.549504                    
V 14  -9735.305937  22015.885808 -16908.429586      0.002393                    
P 15  -2446.893753  24624.680885  -9321.119536   -108.728850                    
V 15  -7423.803535   9876.001885  28363.259209     -0.012674                    
P 16   4926.162934 -16543.793170  20075.414748   -252.409071                    
V 16  15204.670153  20562.666796  13532.402574     -0.001495                    
P 17 -17580.026295   8496.307385 -17682.607942     48.593205                    
V 17   8235.504351 -21499.059817 -18535.431014     -0.038492                    
P 18  20183.401286  13441.335760 -10845.265227    239.935124                    
V 18   6024.674671  13338.626097  26437.926014      0.018752                    
P 19   7171.020645 -24253.746854  -7457.491740   -349.532823                    
V 19   7076.234560  -6944.836779  30109.131204     -0.032388                    
P 20 -12772.585661 -22547.554758  -6185.166458     84.592275                    
V 20   7653.000631   3579.942031 -29635.566702      0.016200                    
P 21  24402.479129   4952.131147  10522.804921   -281.277137                    
V 21 -12045.562811   4168.139357  26850.489746     -0.022463                    
P 22  18668.632663   1528.267351 -18694.619718    158.775549                    
V 22  12981.222659  20511.898103  14361.585184      0.011476                    
P 23  -3507.442296 -20522.045940  16325.558540    112.880021                    
V 23  10379.511667 -18136.277735 -21021.438942     -0.036969                    
P 24   3507.264513  14892.473538 -21714.953249     -1.243369                    
V 24 -27322.616326   3683.928909  -1854.144588     -0.007010                    
P 25  17837.046024  19420.601924   3524.700149     71.147991                    
V 25    842.647680   5022.581639 -31519.006806      0.030004                    
P 26 -12768.659279  23040.613920    446.169412    -97.283367                    
V 26  -1583.099147  -2379.205705  32412.902279      0.140878                    
P 28 -18499.385207  -6900.491246 -17274.067637    233.634866                    
V 28 -11632.278755 -19858.917262  19551.787397      0.034795                    
P 29   9800.688271  13092.750388  20991.737655    408.918436                    
V 29 -12203.142404  23537.487200  -8965.474323      0.036383                    
P 30  12622.293549  -8358.859070  21471.527105   -223.192437                    
V 30  18839.495758  20849.035698  -2931.542237      0.089960                    
P 31  23798.196161  -8346.464569   8949.870316    302.928429                    
V 31  11121.102965    658.286955 -29287.314869      0.017368                    
P 32  -4789.390960 -23548.004470 -11716.308159   -536.419030                    
V 32   9878.200891  11445.710144 -26198.453937     -0.032981                    
EOF
